STARLINK-4193           
1 52875U 22062AX  22176.91667824 -.00749014  00000+0 -32481-2 0  9996
2 52875  53.2175   3.6549 0015229  58.4946  73.2284 15.85638015  1306
STARLINK-4200           
1 52876U 22062AY  22176.91667824 -.00748855  00000+0 -32511-2 0  9993
2 52876  53.2175   3.6555 0015197  58.7267  72.4203 15.85615545  1302
STARLINK-4214           
1 52877U 22062AZ  22176.91667824 -.00749215  00000+0 -32463-2 0  9991
2 52877  53.2175   3.6538 0015083  58.4088  73.9086 15.85659820  1305
STARLINK-4171           
1 52878U 22062BA  22176.91667824 -.00749009  00000+0 -32461-2 0  9991
2 52878  53.2175   3.6538 0015288  58.5533  73.4754 15.85648546  1309
STARLINK-4139           
1 52879U 22062BB  22176.91667824 -.00749345  00000+0 -32413-2 0  9992
2 52879  53.2175   3.6521 0015128  58.4491  74.7244 15.85693613  1300
STARLINK-4186           
1 52880U 22062BC  22176.91667824 -.00749268  00000+0 -32412-2 0  9997
2 52880  53.2175   3.6520 0015440  58.9038  73.9899 15.85682095  1309
STARLINK-4192           
1 52881U 22062BD  22176.91667824 -.00749313  00000+0 -32443-2 0  9993
2 52881  53.2175   3.6532 0015243  58.1571  74.4704 15.85670210  1305
STARLINK-4181           
1 52882U 22062BE  22176.91667824 -.00749466  00000+0 -32398-2 0  9992
2 52882  53.2175   3.6509 0015213  58.6346  74.8509 15.85703921  1305
FALCON 9 DEB            
1 52883U 22062BF  22176.48117872  .00641043  20650-3  74826-3 0  9998
2 52883  53.2179   5.4499 0063870  70.5332 290.2587 16.03868958  1266
FALCON 9 DEB            
1 52884U 22062BG  22176.47847027  .00606765  18664-3  70473-3 0  9998
2 52884  53.2157   5.4282 0058945  71.6668 289.0765 16.04539022  1266
FALCON 9 DEB            
1 52885U 22062BH  22176.47269362  .00608249  19168-3  65569-3 0  9998
2 52885  53.2154   5.3830 0056189  66.4815 294.2110 16.05955913  1260
FALCON 9 DEB            
1 52886U 22062BJ  22176.47195760  .00694223  25201-3  73663-3 0  9995
2 52886  53.2165   5.3774 0056781  67.7741 292.9303 16.06121499  1264
SARAH-1                 
1 52887U 22063A   22174.76914807  .00057931  00000+0  16917-1 0  9990
2 52887  98.3930 181.8659 0001741 114.3380 245.7128 14.43706701  1277
GLOBALSTAR FM15         
1 52888U 22064A   22177.12420388 -.00000128  00000+0  00000+0 0  9992
2 52888  51.9758 206.0844 0009410 328.0191  32.0142 13.37544016   893
2022-065A               
1 52894U 22065A   22176.66161797  .00000207  00000+0  55230-4 0  9991
2 52894  98.0198 327.8114 0008427 222.3234 137.7314 14.57557436   643
2022-065B               
1 52895U 22065B   22176.86575337  .00000076  00000+0  26177-4 0  9995
2 52895  98.0199 328.0118 0007134 238.6171 121.4330 14.58135733   670
KSLV-II R/B             
1 52896U 22065C   22176.92067793  .00005023  00000+0  99961-3 0  9992
2 52896  98.0694 328.1234 0005127  32.0976 328.0537 14.62492231   678
TIANXING-1              
1 52901U 22066A   22177.21804300  .00162405  12137-4  38438-3 0  9995
2 52901  96.7438 221.7518 0010280 220.4339 220.0375 15.96690845   659
2022-067A               
1 52903U 22067A   22176.62271773 -.00000111  00000+0  10000-3 0  9996
2 52903   1.3382  62.9794 3447243 180.5985 151.6475  1.56386592    57
2022-067B               
1 52904U 22067B   22175.46288562  .00019934  00000+0  70038-2 0  9990
2 52904   5.9984  65.0266 7278951 179.2438 182.9852  2.27858489    36
ARIANE 5 DEB [SYLDA]    
1 52905U 22067C   22176.76859917 -.00000024  00000+0  10000-3 0  9998
2 52905   6.0202  64.3681 7276168 180.4515 176.7522  2.28157191    53
ARIANE 5 R/B            
1 52906U 22067D   22176.75461949 -.00145053  00000+0 -39191-1 0  9995
2 52906   6.1781  62.4794 7277785 182.1575 170.4509  2.28617209    60
YAOGAN-35 D             
1 52907U 22068A   22177.19406688  .00005186  00000+0  20664-3 0  9992
2 52907  34.9961 262.8481 0009533 304.4513 254.1848 15.24553331   462
YAOGAN-35 E             
1 52908U 22068B   22177.19274513  .00007781  00000+0  30609-3 0  9996
2 52908  34.9952 262.8467 0009716 313.7440 241.2041 15.24883082   430
YAOGAN-35 F             
1 52909U 22068C   22177.19525495 -.00014251  00000+0 -57289-3 0  9990
2 52909  34.9951 262.8526 0008592 295.0570 264.7851 15.24019029   478
CZ-2D R/B               
1 52910U 22068D   22176.96193542  .00010257  00000+0  40963-3 0  9991
2 52910  34.9981 264.3181 0009377 293.3036  66.6518 15.24331475   401
CZ-2D DEB               
1 52911U 22068E   22176.69942726  .00012206  00000+0  48267-3 0  9999
2 52911  34.9979 265.9653 0010091 301.3333  58.6409 15.24629280   364
